{
  "norad_id": 62665,
  "name": "JAY-D2",
  "history": [
    {
      "epoch": "2026-03-28T21:53:51.691776Z",
      "apogee_km": 502.23436816116464,
      "perigee_km": 498.7152703544325,
      "latitude_deg": 6.540078107816724e-05,
      "longitude_deg": 12.99606696958797,
      "height_km": 504.47066985770186,
      "semi_major_axis_km": 6878.611819257799,
      "eccentricity": 0.0002558,
      "inclination_deg": 97.3918,
      "raan_deg": 167.7875,
      "arg_perigee_deg": 239.2522,
      "mean_anomaly_deg": 120.8463,
      "mean_motion_rev_day": 15.21778905
    },
    {
      "epoch": "2026-03-29T04:12:36.458208Z",
      "apogee_km": 502.2271018822303,
      "perigee_km": 498.69287874860765,
      "latitude_deg": -2.4564361629673066e-05,
      "longitude_deg": -81.69129066698412,
      "height_km": 504.4986293057028,
      "semi_major_axis_km": 6878.596990315419,
      "eccentricity": 0.0002569,
      "inclination_deg": 97.3918,
      "raan_deg": 168.0459,
      "arg_perigee_deg": 237.7721,
      "mean_anomaly_deg": 122.3266,
      "mean_motion_rev_day": 15.21783826
    },
    {
      "epoch": "2026-03-30T03:52:54.006816Z",
      "apogee_km": 502.2494061029465,
      "perigee_km": 498.6044550761271,
      "latitude_deg": 5.813647835472625e-06,
      "longitude_deg": -76.76746883668538,
      "height_km": 504.63641652998325,
      "semi_major_axis_km": 6878.5639305895365,
      "eccentricity": 0.00026495,
      "inclination_deg": 97.3918,
      "raan_deg": 169.015,
      "arg_perigee_deg": 232.3487,
      "mean_anomaly_deg": 127.7509,
      "mean_motion_rev_day": 15.21794797
    },
    {
      "epoch": "2026-03-30T11:46:19.695936Z",
      "apogee_km": 502.25199331532986,
      "perigee_km": 498.57967152915626,
      "latitude_deg": 3.201337525257245e-05,
      "longitude_deg": 164.8744401076372,
      "height_km": 504.6753993576747,
      "semi_major_axis_km": 6878.552832422243,
      "eccentricity": 0.00026694,
      "inclination_deg": 97.3918,
      "raan_deg": 169.338,
      "arg_perigee_deg": 230.6845,
      "mean_anomaly_deg": 129.4155,
      "mean_motion_rev_day": 15.2179848
    },
    {
      "epoch": "2026-03-30T21:14:26.424384Z",
      "apogee_km": 502.26187560429025,
      "perigee_km": 498.54319955948176,
      "latitude_deg": -7.497481590144408e-05,
      "longitude_deg": 22.84526022402172,
      "height_km": 504.7197469655516,
      "semi_major_axis_km": 6878.539537581885,
      "eccentricity": 0.00027031,
      "inclination_deg": 97.3918,
      "raan_deg": 169.7257,
      "arg_perigee_deg": 228.9517,
      "mean_anomaly_deg": 131.1485,
      "mean_motion_rev_day": 15.21802892
    },
    {
      "epoch": "2026-03-31T19:20:01.761216Z",
      "apogee_km": 502.28500319403884,
      "perigee_km": 498.4619270775165,
      "latitude_deg": 4.423206271100699e-05,
      "longitude_deg": 51.445075914522995,
      "height_km": 504.82332100275516,
      "semi_major_axis_km": 6878.510465135778,
      "eccentricity": 0.0002779,
      "inclination_deg": 97.3917,
      "raan_deg": 170.6301,
      "arg_perigee_deg": 224.9125,
      "mean_anomaly_deg": 135.1887,
      "mean_motion_rev_day": 15.2181254
    },
    {
      "epoch": "2026-04-01T19:00:17.695008Z",
      "apogee_km": 502.30028271194806,
      "perigee_km": 498.39605453023796,
      "latitude_deg": 3.0020933176981123e-05,
      "longitude_deg": 56.37555096280145,
      "height_km": 504.9310417501428,
      "semi_major_axis_km": 6878.485168621092,
      "eccentricity": 0.0002838,
      "inclination_deg": 97.3915,
      "raan_deg": 171.5991,
      "arg_perigee_deg": 220.3894,
      "mean_anomaly_deg": 139.7132,
      "mean_motion_rev_day": 15.21820935
    },
    {
      "epoch": "2026-04-02T18:40:32.998080Z",
      "apogee_km": 502.3135910782148,
      "perigee_km": 498.2883291839453,
      "latitude_deg": 5.258701390917524e-05,
      "longitude_deg": 61.30875601232917,
      "height_km": 505.02983113989654,
      "semi_major_axis_km": 6878.437960131079,
      "eccentricity": 0.0002926,
      "inclination_deg": 97.3912,
      "raan_deg": 172.5682,
      "arg_perigee_deg": 215.7723,
      "mean_anomaly_deg": 144.3318,
      "mean_motion_rev_day": 15.21836602
    },
    {
      "epoch": "2026-04-02T21:49:54.984288Z",
      "apogee_km": 502.3100962990684,
      "perigee_km": 498.28139823899346,
      "latitude_deg": -7.948945126171038e-05,
      "longitude_deg": 13.966647222605797,
      "height_km": 505.04087009700174,
      "semi_major_axis_km": 6878.432747269031,
      "eccentricity": 0.00029285,
      "inclination_deg": 97.3912,
      "raan_deg": 172.6973,
      "arg_perigee_deg": 215.0421,
      "mean_anomaly_deg": 145.0622,
      "mean_motion_rev_day": 15.21838332
    },
    {
      "epoch": "2026-04-03T19:55:28.436736Z",
      "apogee_km": 502.3610864195389,
      "perigee_km": 498.14600869199694,
      "latitude_deg": 4.362149640072149e-05,
      "longitude_deg": 42.57463424458051,
      "height_km": 505.15181089116254,
      "semi_major_axis_km": 6878.390547555768,
      "eccentricity": 0.0003064,
      "inclination_deg": 97.391,
      "raan_deg": 173.602,
      "arg_perigee_deg": 211.2153,
      "mean_anomaly_deg": 148.8902,
      "mean_motion_rev_day": 15.21852337
    },
    {
      "epoch": "2026-04-04T19:35:42.005760Z",
      "apogee_km": 502.35412315154827,
      "perigee_km": 498.0812892080694,
      "latitude_deg": -5.704695925380976e-05,
      "longitude_deg": 47.514898584529156,
      "height_km": 505.21874726290196,
      "semi_major_axis_km": 6878.354706179809,
      "eccentricity": 0.0003106,
      "inclination_deg": 97.3907,
      "raan_deg": 174.5709,
      "arg_perigee_deg": 206.8927,
      "mean_anomaly_deg": 153.2148,
      "mean_motion_rev_day": 15.21864232
    },
    {
      "epoch": "2026-04-05T11:22:30.672768Z",
      "apogee_km": 502.3730698715208,
      "perigee_km": 498.0150968637199,
      "latitude_deg": 6.371604656826595e-05,
      "longitude_deg": 170.81013360192915,
      "height_km": 505.27599985839515,
      "semi_major_axis_km": 6878.33108336762,
      "eccentricity": 0.00031679,
      "inclination_deg": 97.3905,
      "raan_deg": 175.217,
      "arg_perigee_deg": 204.2727,
      "mean_anomaly_deg": 155.8361,
      "mean_motion_rev_day": 15.21872072
    },
    {
      "epoch": "2026-04-05T19:15:54.933696Z",
      "apogee_km": 502.3907802987251,
      "perigee_km": 497.9790246304847,
      "latitude_deg": 5.2336620647505735e-05,
      "longitude_deg": 52.45811351836307,
      "height_km": 505.3095703585583,
      "semi_major_axis_km": 6878.321902464604,
      "eccentricity": 0.0003207,
      "inclination_deg": 97.3904,
      "raan_deg": 175.5401,
      "arg_perigee_deg": 203.0907,
      "mean_anomaly_deg": 157.0186,
      "mean_motion_rev_day": 15.21875119
    },
    {
      "epoch": "2026-04-06T06:18:40.818816Z",
      "apogee_km": 502.40781795392286,
      "perigee_km": 497.9382920801727,
      "latitude_deg": 5.689441503969548e-07,
      "longitude_deg": -113.23451516298658,
      "height_km": 505.342608043652,
      "semi_major_axis_km": 6878.3100550170475,
      "eccentricity": 0.0003249,
      "inclination_deg": 97.3904,
      "raan_deg": 175.9923,
      "arg_perigee_deg": 201.8596,
      "mean_anomaly_deg": 158.2502,
      "mean_motion_rev_day": 15.21879051
    },
    {
      "epoch": "2026-04-07T12:17:36.257280Z",
      "apogee_km": 502.4579267492654,
      "perigee_km": 497.8288440498918,
      "latitude_deg": -1.1148202959599675e-05,
      "longitude_deg": 157.0308697102711,
      "height_km": 505.46295321650456,
      "semi_major_axis_km": 6878.280385399578,
      "eccentricity": 0.0003365,
      "inclination_deg": 97.3902,
      "raan_deg": 177.22,
      "arg_perigee_deg": 196.0416,
      "mean_anomaly_deg": 164.0714,
      "mean_motion_rev_day": 15.21888898
    },
    {
      "epoch": "2026-04-07T20:11:00.206304Z",
      "apogee_km": 502.4855997877821,
      "perigee_km": 497.7877388716297,
      "latitude_deg": -1.70074047732105e-05,
      "longitude_deg": 38.680151697544595,
      "height_km": 505.50656889915547,
      "semi_major_axis_km": 6878.273669329706,
      "eccentricity": 0.0003415,
      "inclination_deg": 97.3901,
      "raan_deg": 177.5431,
      "arg_perigee_deg": 194.4291,
      "mean_anomaly_deg": 165.6848,
      "mean_motion_rev_day": 15.21891127
    },
    {
      "epoch": "2026-04-08T11:57:47.939328Z",
      "apogee_km": 502.5281139657727,
      "perigee_km": 497.7147087295107,
      "latitude_deg": -5.051926247353907e-05,
      "longitude_deg": 161.97930788811084,
      "height_km": 505.56937726001973,
      "semi_major_axis_km": 6878.258411347641,
      "eccentricity": 0.0003499,
      "inclination_deg": 97.3901,
      "raan_deg": 178.1892,
      "arg_perigee_deg": 192.1225,
      "mean_anomaly_deg": 167.9927,
      "mean_motion_rev_day": 15.21896191
    },
    {
      "epoch": "2026-04-09T19:31:22.861056Z",
      "apogee_km": 502.5799641655585,
      "perigee_km": 497.60012778427244,
      "latitude_deg": -2.099626334883767e-05,
      "longitude_deg": 48.579982121782336,
      "height_km": 505.6513573404668,
      "semi_major_axis_km": 6878.227045974915,
      "eccentricity": 0.000362,
      "inclination_deg": 97.3901,
      "raan_deg": 179.4815,
      "arg_perigee_deg": 187.8336,
      "mean_anomaly_deg": 172.2844,
      "mean_motion_rev_day": 15.21906601
    },
    {
      "epoch": "2026-04-10T06:34:07.883904Z",
      "apogee_km": 502.59646080903076,
      "perigee_km": 497.5570687121408,
      "latitude_deg": 2.9462285791318125e-05,
      "longitude_deg": -117.10905729866161,
      "height_km": 505.6757545902725,
      "semi_major_axis_km": 6878.213764760585,
      "eccentricity": 0.00036633,
      "inclination_deg": 97.3901,
      "raan_deg": 179.9337,
      "arg_perigee_deg": 186.2993,
      "mean_anomaly_deg": 173.8198,
      "mean_motion_rev_day": 15.21911009
    },
    {
      "epoch": "2026-04-11T20:26:24.643104Z",
      "apogee_km": 502.6714217935596,
      "perigee_km": 497.4302426654003,
      "latitude_deg": -4.0316156613797185e-05,
      "longitude_deg": 34.816198715235814,
      "height_km": 505.7653078127888,
      "semi_major_axis_km": 6878.18783222948,
      "eccentricity": 0.000381,
      "inclination_deg": 97.3903,
      "raan_deg": 181.4841,
      "arg_perigee_deg": 180.5781,
      "mean_anomaly_deg": 179.5451,
      "mean_motion_rev_day": 15.21919616
    },
    {
      "epoch": "2026-04-13T05:34:38.673120Z",
      "apogee_km": 502.7596903163958,
      "perigee_km": 497.3039268174416,
      "latitude_deg": -3.660537615495248e-05,
      "longitude_deg": -102.24635846903698,
      "height_km": 505.8467024197903,
      "semi_major_axis_km": 6878.168808566918,
      "eccentricity": 0.0003966,
      "inclination_deg": 97.3903,
      "raan_deg": 182.8409,
      "arg_perigee_deg": 176.0233,
      "mean_anomaly_deg": 184.1035,
      "mean_motion_rev_day": 15.2192593
    }
  ]
}